{
  "type": "FeatureCollection",
  "features": [
    {
      "type": "Feature",
      "properties": {
        "norad_id": 33887,
        "name": "IRIDIUM 33 DEB",
        "group": "iridium-33-debris",
        "lat": -30.7011181117299,
        "lon": -4.925347769716756,
        "alt_km": 777.5707491441899,
        "timestamp": "2025-12-26T22:28:06.169878+00:00",
        "meta_object_name": "IRIDIUM 33 DEB",
        "meta_object_id": "1997-051BG",
        "meta_epoch": "2025-12-26T01:09:55.785312",
        "meta_mean_motion": 14.37232581,
        "meta_eccentricity": 0.00058983,
        "meta_inclination": 86.3044,
        "meta_ra_of_asc_node": 357.6564,
        "meta_arg_of_pericenter": 176.4648,
        "meta_mean_anomaly": 243.1701,
        "meta_ephemeris_type": 0,
        "meta_classification_type": "U",
        "meta_norad_cat_id": 33887,
        "meta_element_set_no": 999,
        "meta_rev_at_epoch": 88356,
        "meta_bstar": 0.00014545145,
        "meta_mean_motion_dot": 4.53e-06,
        "meta_mean_motion_ddot": 0,
        "tle_line1": "1 33887U 97051BG  25360.04856233  .00000453  00000+0  14545-3 0  9991",
        "tle_line2": "2 33887  86.3044 357.6564 0005898 176.4648 243.1701 14.37232581883562"
      },
      "geometry": {
        "type": "Point",
        "coordinates": [
          -4.925347769716756,
          -30.7011181117299
        ]
      }
    },
    {
      "type": "Feature",
      "properties": {
        "norad_id": 33953,
        "name": "IRIDIUM 33 DEB",
        "group": "iridium-33-debris",
        "lat": 31.3902243334304,
        "lon": 49.8280731375696,
        "alt_km": 695.2550689123009,
        "timestamp": "2025-12-26T22:28:06.169889+00:00",
        "meta_object_name": "IRIDIUM 33 DEB",
        "meta_object_id": "1997-051BN",
        "meta_epoch": "2025-12-26T14:46:02.739936",
        "meta_mean_motion": 14.55451821,
        "meta_eccentricity": 0.0017451,
        "meta_inclination": 86.3834,
        "meta_ra_of_asc_node": 47.7557,
        "meta_arg_of_pericenter": 60.1468,
        "meta_mean_anomaly": 91.3298,
        "meta_ephemeris_type": 0,
        "meta_classification_type": "U",
        "meta_norad_cat_id": 33953,
        "meta_element_set_no": 999,
        "meta_rev_at_epoch": 88505,
        "meta_bstar": 0.0011159,
        "meta_mean_motion_dot": 4.881e-05,
        "meta_mean_motion_ddot": 0,
        "tle_line1": "1 33953U 97051BN  25360.61530949  .00004881  00000+0  11159-2 0  9997",
        "tle_line2": "2 33953  86.3834  47.7557 0017451  60.1468  91.3298 14.55451821885059"
      },
      "geometry": {
        "type": "Point",
        "coordinates": [
          49.8280731375696,
          31.3902243334304
        ]
      }
    },
    {
      "type": "Feature",
      "properties": {
        "norad_id": 33960,
        "name": "IRIDIUM 33 DEB",
        "group": "iridium-33-debris",
        "lat": -65.2415292149322,
        "lon": -85.34967820147891,
        "alt_km": 619.117375574795,
        "timestamp": "2025-12-26T22:28:06.169901+00:00",
        "meta_object_name": "IRIDIUM 33 DEB",
        "meta_object_id": "1997-051BV",
        "meta_epoch": "2025-12-26T18:02:38.047200",
        "meta_mean_motion": 14.85907169,
        "meta_eccentricity": 0.0006948,
        "meta_inclination": 86.2535,
        "meta_ra_of_asc_node": 282.9057,
        "meta_arg_of_pericenter": 38.1734,
        "meta_mean_anomaly": 350.9448,
        "meta_ephemeris_type": 0,
        "meta_classification_type": "U",
        "meta_norad_cat_id": 33960,
        "meta_element_set_no": 999,
        "meta_rev_at_epoch": 89075,
        "meta_bstar": 0.0032088,
        "meta_mean_motion_dot": 0.00028087,
        "meta_mean_motion_ddot": 0,
        "tle_line1": "1 33960U 97051BV  25360.75182925  .00028087  00000+0  32088-2 0  9995",
        "tle_line2": "2 33960  86.2535 282.9057 0006948  38.1734 350.9448 14.85907169890750"
      },
      "geometry": {
        "type": "Point",
        "coordinates": [
          -85.34967820147891,
          -65.2415292149322
        ]
      }
    },
    {
      "type": "Feature",
      "properties": {
        "norad_id": 33966,
        "name": "IRIDIUM 33 DEB",
        "group": "iridium-33-debris",
        "lat": -43.38710283556849,
        "lon": -136.6462277553678,
        "alt_km": 732.3245185210653,
        "timestamp": "2025-12-26T22:28:06.169911+00:00",
        "meta_object_name": "IRIDIUM 33 DEB",
        "meta_object_id": "1997-051CB",
        "meta_epoch": "2025-12-26T15:23:33.736416",
        "meta_mean_motion": 14.49646818,
        "meta_eccentricity": 0.0008881,
        "meta_inclination": 86.391,
        "meta_ra_of_asc_node": 40.0602,
        "meta_arg_of_pericenter": 145.5538,
        "meta_mean_anomaly": 340.1487,
        "meta_ephemeris_type": 0,
        "meta_classification_type": "U",
        "meta_norad_cat_id": 33966,
        "meta_element_set_no": 999,
        "meta_rev_at_epoch": 88643,
        "meta_bstar": 0.00051075,
        "meta_mean_motion_dot": 1.983e-05,
        "meta_mean_motion_ddot": 0,
        "tle_line1": "1 33966U 97051CB  25360.64136269  .00001983  00000+0  51075-3 0  9993",
        "tle_line2": "2 33966  86.3910  40.0602 0008881 145.5538 340.1487 14.49646818886431"
      },
      "geometry": {
        "type": "Point",
        "coordinates": [
          -136.6462277553678,
          -43.38710283556849
        ]
      }
    },
    {
      "type": "Feature",
      "properties": {
        "norad_id": 34071,
        "name": "IRIDIUM 33 DEB",
        "group": "iridium-33-debris",
        "lat": -76.32147043359205,
        "lon": -3.5687203818079163,
        "alt_km": 740.4060474188091,
        "timestamp": "2025-12-26T22:28:06.169922+00:00",
        "meta_object_name": "IRIDIUM 33 DEB",
        "meta_object_id": "1997-051CE",
        "meta_epoch": "2025-12-26T17:51:07.795008",
        "meta_mean_motion": 14.49526568,
        "meta_eccentricity": 0.0009804,
        "meta_inclination": 86.3453,
        "meta_ra_of_asc_node": 11.7403,
        "meta_arg_of_pericenter": 70.1047,
        "meta_mean_anomaly": 290.1213,
        "meta_ephemeris_type": 0,
        "meta_classification_type": "U",
        "meta_norad_cat_id": 34071,
        "meta_element_set_no": 999,
        "meta_rev_at_epoch": 88537,
        "meta_bstar": 0.00064162,
        "meta_mean_motion_dot": 2.48e-05,
        "meta_mean_motion_ddot": 0,
        "tle_line1": "1 34071U 97051CE  25360.74384022  .00002480  00000+0  64162-3 0  9998",
        "tle_line2": "2 34071  86.3453  11.7403 0009804  70.1047 290.1213 14.49526568885371"
      },
      "geometry": {
        "type": "Point",
        "coordinates": [
          -3.5687203818079163,
          -76.32147043359205
        ]
      }
    },
    {
      "type": "Feature",
      "properties": {
        "norad_id": 34077,
        "name": "IRIDIUM 33 DEB",
        "group": "iridium-33-debris",
        "lat": -12.763653706104382,
        "lon": -133.9272621332842,
        "alt_km": 687.2834910344873,
        "timestamp": "2025-12-26T22:28:06.169932+00:00",
        "meta_object_name": "IRIDIUM 33 DEB",
        "meta_object_id": "1997-051CL",
        "meta_epoch": "2025-12-26T15:37:29.746272",
        "meta_mean_motion": 14.65017306,
        "meta_eccentricity": 0.0008586,
        "meta_inclination": 86.3849,
        "meta_ra_of_asc_node": 45.3778,
        "meta_arg_of_pericenter": 353.3839,
        "meta_mean_anomaly": 136.4278,
        "meta_ephemeris_type": 0,
        "meta_classification_type": "U",
        "meta_norad_cat_id": 34077,
        "meta_element_set_no": 999,
        "meta_rev_at_epoch": 88536,
        "meta_bstar": 0.0015938,
        "meta_mean_motion_dot": 8.57e-05,
        "meta_mean_motion_ddot": 0,
        "tle_line1": "1 34077U 97051CL  25360.65103873  .00008570  00000+0  15938-2 0  9999",
        "tle_line2": "2 34077  86.3849  45.3778 0008586 353.3839 136.4278 14.65017306885360"
      },
      "geometry": {
        "type": "Point",
        "coordinates": [
          -133.9272621332842,
          -12.763653706104382
        ]
      }
    },
    {
      "type": "Feature",
      "properties": {
        "norad_id": 34079,
        "name": "IRIDIUM 33 DEB",
        "group": "iridium-33-debris",
        "lat": 63.14231444142747,
        "lon": 9.389609815744265,
        "alt_km": 611.8681753021283,
        "timestamp": "2025-12-26T22:28:06.169943+00:00",
        "meta_object_name": "IRIDIUM 33 DEB",
        "meta_object_id": "1997-051CN",
        "meta_epoch": "2025-12-26T18:07:27.996096",
        "meta_mean_motion": 14.83912945,
        "meta_eccentricity": 0.000379,
        "meta_inclination": 86.3778,
        "meta_ra_of_asc_node": 2.2859,
        "meta_arg_of_pericenter": 313.1989,
        "meta_mean_anomaly": 223.9138,
        "meta_ephemeris_type": 0,
        "meta_classification_type": "U",
        "meta_norad_cat_id": 34079,
        "meta_element_set_no": 999,
        "meta_rev_at_epoch": 89185,
        "meta_bstar": 0.0020562,
        "meta_mean_motion_dot": 0.00017127,
        "meta_mean_motion_ddot": 0,
        "tle_line1": "1 34079U 97051CN  25360.75518514  .00017127  00000+0  20562-2 0  9991",
        "tle_line2": "2 34079  86.3778   2.2859 0003790 313.1989 223.9138 14.83912945891858"
      },
      "geometry": {
        "type": "Point",
        "coordinates": [
          9.389609815744265,
          63.14231444142747
        ]
      }
    }
  ]
}